{
  "links" : {
    "next" : "https://api.nasa.gov/neo/rest/v1/feed?start_date=2012-04-23&end_date=2012-04-23&detailed=true&api_key=t0TVs3DtDT2H8Oy2Zy8m2eVrNsAVKAexjcZXUckd",
    "prev" : "https://api.nasa.gov/neo/rest/v1/feed?start_date=2012-04-21&end_date=2012-04-21&detailed=true&api_key=t0TVs3DtDT2H8Oy2Zy8m2eVrNsAVKAexjcZXUckd",
    "self" : "https://api.nasa.gov/neo/rest/v1/feed?start_date=2012-04-22&end_date=2012-04-22&detailed=true&api_key=t0TVs3DtDT2H8Oy2Zy8m2eVrNsAVKAexjcZXUckd"
  },
  "element_count" : 8,
  "near_earth_objects" : {
    "2012-04-22" : [ {
      "links" : {
        "self" : "https://api.nasa.gov/neo/rest/v1/neo/3602577?api_key=t0TVs3DtDT2H8Oy2Zy8m2eVrNsAVKAexjcZXUckd"
      },
      "neo_reference_id" : "3602577",
      "name" : "(2012 HE)",
      "nasa_jpl_url" : "http://ssd.jpl.nasa.gov/sbdb.cgi?sstr=3602577",
      "absolute_magnitude_h" : 25.7,
      "estimated_diameter" : {
        "kilometers" : {
          "estimated_diameter_min" : 0.0192555078,
          "estimated_diameter_max" : 0.0430566244
        },
        "meters" : {
          "estimated_diameter_min" : 19.2555078188,
          "estimated_diameter_max" : 43.0566244241
        },
        "miles" : {
          "estimated_diameter_min" : 0.0119648141,
          "estimated_diameter_max" : 0.0267541378
        },
        "feet" : {
          "estimated_diameter_min" : 63.1742402722,
          "estimated_diameter_max" : 141.2618956756
        }
      },
      "is_potentially_hazardous_asteroid" : false,
      "close_approach_data" : [ {
        "close_approach_date" : "2012-04-22",
        "epoch_date_close_approach" : 1335078000000,
        "relative_velocity" : {
          "kilometers_per_second" : "9.1386805887",
          "kilometers_per_hour" : "32899.2501192042",
          "miles_per_hour" : "20442.314608791"
        },
        "miss_distance" : {
          "astronomical" : "0.0177922221",
          "lunar" : "6.9211745262",
          "kilometers" : "2661678.75",
          "miles" : "1653890.5"
        },
        "orbiting_body" : "Earth"
      } ],
      "orbital_data" : {
        "orbit_id" : "7",
        "orbit_determination_date" : "2017-04-06 08:50:07",
        "orbit_uncertainty" : "8",
        "minimum_orbit_intersection" : ".0124656",
        "jupiter_tisserand_invariant" : "3.465",
        "epoch_osculation" : "2456036.5",
        "eccentricity" : ".53862518799554",
        "semi_major_axis" : "2.18247149202282",
        "inclination" : "7.888429679214916",
        "ascending_node_longitude" : "32.77820754316915",
        "orbital_period" : "1177.663720392828",
        "perihelion_distance" : "1.006937374337122",
        "perihelion_argument" : "196.2376634388118",
        "aphelion_distance" : "3.358005609708519",
        "perihelion_time" : "2456053.266347203491",
        "mean_anomaly" : "354.874695646357",
        "mean_motion" : ".3056899807356861",
        "equinox" : "J2000"
      }
    }, {
      "links" : {
        "self" : "https://api.nasa.gov/neo/rest/v1/neo/3476134?api_key=t0TVs3DtDT2H8Oy2Zy8m2eVrNsAVKAexjcZXUckd"
      },
      "neo_reference_id" : "3476134",
      "name" : "(2009 VA26)",
      "nasa_jpl_url" : "http://ssd.jpl.nasa.gov/sbdb.cgi?sstr=3476134",
      "absolute_magnitude_h" : 20.7,
      "estimated_diameter" : {
        "kilometers" : {
          "estimated_diameter_min" : 0.1925550782,
          "estimated_diameter_max" : 0.4305662442
        },
        "meters" : {
          "estimated_diameter_min" : 192.5550781879,
          "estimated_diameter_max" : 430.566244241
        },
        "miles" : {
          "estimated_diameter_min" : 0.1196481415,
          "estimated_diameter_max" : 0.2675413778
        },
        "feet" : {
          "estimated_diameter_min" : 631.7424027221,
          "estimated_diameter_max" : 1412.6189567557
        }
      },
      "is_potentially_hazardous_asteroid" : true,
      "close_approach_data" : [ {
        "close_approach_date" : "2012-04-22",
        "epoch_date_close_approach" : 1335078000000,
        "relative_velocity" : {
          "kilometers_per_second" : "21.102862148",
          "kilometers_per_hour" : "75970.3037329217",
          "miles_per_hour" : "47204.9923389368"
        },
        "miss_distance" : {
          "astronomical" : "0.4607583478",
          "lunar" : "179.2350006104",
          "kilometers" : "68928472",
          "miles" : "42830164"
        },
        "orbiting_body" : "Earth"
      } ],
      "orbital_data" : {
        "orbit_id" : "19",
        "orbit_determination_date" : "2017-04-06 08:59:13",
        "orbit_uncertainty" : "2",
        "minimum_orbit_intersection" : ".0345562",
        "jupiter_tisserand_invariant" : "4.214",
        "epoch_osculation" : "2458000.5",
        "eccentricity" : ".3836745575919088",
        "semi_major_axis" : "1.512961313376898",
        "inclination" : "38.94931610061416",
        "ascending_node_longitude" : "230.7353717920714",
        "orbital_period" : "679.7358280584442",
        "perihelion_distance" : ".9324765508133434",
        "perihelion_argument" : "307.469139371048",
        "aphelion_distance" : "2.093446075940452",
        "perihelion_time" : "2458026.691891942481",
        "mean_anomaly" : "346.1283152806205",
        "mean_motion" : ".5296175148340818",
        "equinox" : "J2000"
      }
    }, {
      "links" : {
        "self" : "https://api.nasa.gov/neo/rest/v1/neo/3582145?api_key=t0TVs3DtDT2H8Oy2Zy8m2eVrNsAVKAexjcZXUckd"
      },
      "neo_reference_id" : "3582145",
      "name" : "(2011 UD21)",
      "nasa_jpl_url" : "http://ssd.jpl.nasa.gov/sbdb.cgi?sstr=3582145",
      "absolute_magnitude_h" : 28.5,
      "estimated_diameter" : {
        "kilometers" : {
          "estimated_diameter_min" : 0.0053034072,
          "estimated_diameter_max" : 0.0118587791
        },
        "meters" : {
          "estimated_diameter_min" : 5.3034072332,
          "estimated_diameter_max" : 11.8587790858
        },
        "miles" : {
          "estimated_diameter_min" : 0.0032953835,
          "estimated_diameter_max" : 0.0073687014
        },
        "feet" : {
          "estimated_diameter_min" : 17.3996305869,
          "estimated_diameter_max" : 38.9067567758
        }
      },
      "is_potentially_hazardous_asteroid" : false,
      "close_approach_data" : [ {
        "close_approach_date" : "2012-04-22",
        "epoch_date_close_approach" : 1335078000000,
        "relative_velocity" : {
          "kilometers_per_second" : "1.463185273",
          "kilometers_per_hour" : "5267.4669828733",
          "miles_per_hour" : "3272.9991372192"
        },
        "miss_distance" : {
          "astronomical" : "0.0546943924",
          "lunar" : "21.2761192322",
          "kilometers" : "8182164.5",
          "miles" : "5084161.5"
        },
        "orbiting_body" : "Earth"
      } ],
      "orbital_data" : {
        "orbit_id" : "14",
        "orbit_determination_date" : "2017-04-06 08:52:24",
        "orbit_uncertainty" : "4",
        "minimum_orbit_intersection" : ".00346908",
        "jupiter_tisserand_invariant" : "6.184",
        "epoch_osculation" : "2458000.5",
        "eccentricity" : ".03035960597980094",
        "semi_major_axis" : ".9785117578111894",
        "inclination" : "1.062160235672078",
        "ascending_node_longitude" : "22.35461102965357",
        "orbital_period" : "353.5472794082079",
        "perihelion_distance" : ".9488045263974393",
        "perihelion_argument" : "209.7924611703043",
        "aphelion_distance" : "1.00821898922494",
        "perihelion_time" : "2457827.628420270112",
        "mean_anomaly" : "176.0267221032814",
        "mean_motion" : "1.018251365425844",
        "equinox" : "J2000"
      }
    } ]
  }
}